LEMUR-2-STARLIGHT       
1 66783U 25276DY  26095.79402465  .00009978  00000+0  84085-3 0  9991
2 66783  97.5273 168.9303 0014300  19.7767 340.4008 14.98302783 19352
LEMUR-2-TARTIFLETTE     
1 66784U 25276DZ  26095.45475054  .00008131  00000+0  68872-3 0  9995
2 66784  97.5285 168.6169 0013543  27.7118 332.4824 14.98172019 19309
LEMUR-2-VUKASIN         
1 66785U 25276EA  26095.71227950  .00008586  00000+0  70340-3 0  9992
2 66785  97.5279 169.0216 0008671  23.0634 337.0977 14.99484768 19284
LEMUR-2-HOTSPUR-TOM     
1 66786U 25276EB  26095.71158705  .00007344  00000+0  62239-3 0  9993
2 66786  97.5275 168.8667 0014464  22.2343 337.9504 14.98174304 19278
LEMUR-2-MYRA            
1 66787U 25276EC  26095.73968904  .00009905  00000+0  81097-3 0  9994
2 66787  97.5276 168.9977 0012209  33.4982 326.7011 14.99440939 19352
LEMUR-2 FIKRETDENGIZ    
1 67363U 26004A   26095.57842840  .00006185  00000+0  68298-3 0  9992
2 67363  97.8026  95.2857 0009619  29.5564 330.6194 14.87760367 12481
LEMUR-2-CALLUM-K-J      
1 67364U 26004B   26095.51266823  .00004197  00000+0  46905-3 0  9990
2 67364  97.8060  95.2512 0009070  18.9685 341.1867 14.87455771 12489
LEMUR-2-MARIO-SOUSA     
1 67365U 26004C   26095.57017295  .00006521  00000+0  71692-3 0  9998
2 67365  97.8002  95.2766 0009187  31.3523 328.8239 14.87921196 12491
LEMUR-2-SONNENBLUME     
1 67367U 26004E   26095.56431902  .00005488  00000+0  60403-3 0  9993
2 67367  97.7991  95.2731 0008885  32.6815 327.4949 14.87945527 12490
LEMUR-2-WOBLER          
1 67368U 26004F   26095.56365218  .00006183  00000+0  67916-3 0  9999
2 67368  97.8052  95.3290 0008680  23.9021 336.2597 14.87982450 12499
LEMUR-2-GRAM-E-SUE      
1 67370U 26004H   26095.75831384  .00005017  00000+0  55095-3 0  9995
2 67370  97.7988  95.4719 0008080  36.0540 324.1220 14.88085687 12521
LEMUR-2-KATIE           
1 67387U 26004AA  26095.75150125  .00007969  00000+0  84117-3 0  9995
2 67387  97.8052  95.6966 0002710  10.9251 349.2024 14.89531783 12526
LEMUR-2-HCS-BAZUS       
1 67388U 26004AB  26095.54611249  .00003089  00000+0  33042-3 0  9992
2 67388  97.8036  95.4921 0002121  11.0701 349.0563 14.89460466 12497
