[{"OBJECT_NAME":"LEMUR-2-STARLIGHT","OBJECT_ID":"2025-276DY","EPOCH":"2026-04-05T19:03:23.729760","MEAN_MOTION":14.98302783,"ECCENTRICITY":0.00143,"INCLINATION":97.5273,"RA_OF_ASC_NODE":168.9303,"ARG_OF_PERICENTER":19.7767,"MEAN_ANOMALY":340.4008,"EPHEMERIS_TYPE":0,"CLASSIFICATION_TYPE":"U","NORAD_CAT_ID":66783,"ELEMENT_SET_NO":999,"REV_AT_EPOCH":1935,"BSTAR":0.00084085,"MEAN_MOTION_DOT":9.978e-5,"MEAN_MOTION_DDOT":0},{"OBJECT_NAME":"LEMUR-2-TARTIFLETTE","OBJECT_ID":"2025-276DZ","EPOCH":"2026-04-05T10:54:50.446656","MEAN_MOTION":14.98172019,"ECCENTRICITY":0.0013543,"INCLINATION":97.5285,"RA_OF_ASC_NODE":168.6169,"ARG_OF_PERICENTER":27.7118,"MEAN_ANOMALY":332.4824,"EPHEMERIS_TYPE":0,"CLASSIFICATION_TYPE":"U","NORAD_CAT_ID":66784,"ELEMENT_SET_NO":999,"REV_AT_EPOCH":1930,"BSTAR":0.00068872,"MEAN_MOTION_DOT":8.131e-5,"MEAN_MOTION_DDOT":0},{"OBJECT_NAME":"LEMUR-2-VUKASIN","OBJECT_ID":"2025-276EA","EPOCH":"2026-04-05T17:05:40.948800","MEAN_MOTION":14.99484768,"ECCENTRICITY":0.0008671,"INCLINATION":97.5279,"RA_OF_ASC_NODE":169.0216,"ARG_OF_PERICENTER":23.0634,"MEAN_ANOMALY":337.0977,"EPHEMERIS_TYPE":0,"CLASSIFICATION_TYPE":"U","NORAD_CAT_ID":66785,"ELEMENT_SET_NO":999,"REV_AT_EPOCH":1928,"BSTAR":0.0007034,"MEAN_MOTION_DOT":8.586e-5,"MEAN_MOTION_DDOT":0},{"OBJECT_NAME":"LEMUR-2-HOTSPUR-TOM","OBJECT_ID":"2025-276EB","EPOCH":"2026-04-05T17:04:41.121120","MEAN_MOTION":14.98174304,"ECCENTRICITY":0.0014464,"INCLINATION":97.5275,"RA_OF_ASC_NODE":168.8667,"ARG_OF_PERICENTER":22.2343,"MEAN_ANOMALY":337.9504,"EPHEMERIS_TYPE":0,"CLASSIFICATION_TYPE":"U","NORAD_CAT_ID":66786,"ELEMENT_SET_NO":999,"REV_AT_EPOCH":1927,"BSTAR":0.00062239,"MEAN_MOTION_DOT":7.344e-5,"MEAN_MOTION_DDOT":0},{"OBJECT_NAME":"LEMUR-2-MYRA","OBJECT_ID":"2025-276EC","EPOCH":"2026-04-05T17:45:09.133056","MEAN_MOTION":14.99440939,"ECCENTRICITY":0.0012209,"INCLINATION":97.5276,"RA_OF_ASC_NODE":168.9977,"ARG_OF_PERICENTER":33.4982,"MEAN_ANOMALY":326.7011,"EPHEMERIS_TYPE":0,"CLASSIFICATION_TYPE":"U","NORAD_CAT_ID":66787,"ELEMENT_SET_NO":999,"REV_AT_EPOCH":1935,"BSTAR":0.00081097,"MEAN_MOTION_DOT":9.905e-5,"MEAN_MOTION_DDOT":0},{"OBJECT_NAME":"LEMUR-2 FIKRETDENGIZ","OBJECT_ID":"2026-004A","EPOCH":"2026-04-05T13:52:56.213760","MEAN_MOTION":14.87760367,"ECCENTRICITY":0.0009619,"INCLINATION":97.8026,"RA_OF_ASC_NODE":95.2857,"ARG_OF_PERICENTER":29.5564,"MEAN_ANOMALY":330.6194,"EPHEMERIS_TYPE":0,"CLASSIFICATION_TYPE":"U","NORAD_CAT_ID":67363,"ELEMENT_SET_NO":999,"REV_AT_EPOCH":1248,"BSTAR":0.00068298,"MEAN_MOTION_DOT":6.185e-5,"MEAN_MOTION_DDOT":0},{"OBJECT_NAME":"LEMUR-2-CALLUM-K-J","OBJECT_ID":"2026-004B","EPOCH":"2026-04-05T12:18:14.535072","MEAN_MOTION":14.87455771,"ECCENTRICITY":0.000907,"INCLINATION":97.806,"RA_OF_ASC_NODE":95.2512,"ARG_OF_PERICENTER":18.9685,"MEAN_ANOMALY":341.1867,"EPHEMERIS_TYPE":0,"CLASSIFICATION_TYPE":"U","NORAD_CAT_ID":67364,"ELEMENT_SET_NO":999,"REV_AT_EPOCH":1248,"BSTAR":0.00046904532,"MEAN_MOTION_DOT":4.197e-5,"MEAN_MOTION_DDOT":0},{"OBJECT_NAME":"LEMUR-2-MARIO-SOUSA","OBJECT_ID":"2026-004C","EPOCH":"2026-04-05T13:41:02.942880","MEAN_MOTION":14.87921196,"ECCENTRICITY":0.0009187,"INCLINATION":97.8002,"RA_OF_ASC_NODE":95.2766,"ARG_OF_PERICENTER":31.3523,"MEAN_ANOMALY":328.8239,"EPHEMERIS_TYPE":0,"CLASSIFICATION_TYPE":"U","NORAD_CAT_ID":67365,"ELEMENT_SET_NO":999,"REV_AT_EPOCH":1249,"BSTAR":0.00071692,"MEAN_MOTION_DOT":6.521e-5,"MEAN_MOTION_DDOT":0},{"OBJECT_NAME":"LEMUR-2-SONNENBLUME","OBJECT_ID":"2026-004E","EPOCH":"2026-04-05T13:32:37.163328","MEAN_MOTION":14.87945527,"ECCENTRICITY":0.0008885,"INCLINATION":97.7991,"RA_OF_ASC_NODE":95.2731,"ARG_OF_PERICENTER":32.6815,"MEAN_ANOMALY":327.4949,"EPHEMERIS_TYPE":0,"CLASSIFICATION_TYPE":"U","NORAD_CAT_ID":67367,"ELEMENT_SET_NO":999,"REV_AT_EPOCH":1249,"BSTAR":0.00060403,"MEAN_MOTION_DOT":5.488e-5,"MEAN_MOTION_DDOT":0},{"OBJECT_NAME":"LEMUR-2-WOBLER","OBJECT_ID":"2026-004F","EPOCH":"2026-04-05T13:31:39.548352","MEAN_MOTION":14.8798245,"ECCENTRICITY":0.000868,"INCLINATION":97.8052,"RA_OF_ASC_NODE":95.329,"ARG_OF_PERICENTER":23.9021,"MEAN_ANOMALY":336.2597,"EPHEMERIS_TYPE":0,"CLASSIFICATION_TYPE":"U","NORAD_CAT_ID":67368,"ELEMENT_SET_NO":999,"REV_AT_EPOCH":1249,"BSTAR":0.00067916,"MEAN_MOTION_DOT":6.183e-5,"MEAN_MOTION_DDOT":0},{"OBJECT_NAME":"LEMUR-2-GRAM-E-SUE","OBJECT_ID":"2026-004H","EPOCH":"2026-04-05T18:11:58.315776","MEAN_MOTION":14.88085687,"ECCENTRICITY":0.000808,"INCLINATION":97.7988,"RA_OF_ASC_NODE":95.4719,"ARG_OF_PERICENTER":36.054,"MEAN_ANOMALY":324.122,"EPHEMERIS_TYPE":0,"CLASSIFICATION_TYPE":"U","NORAD_CAT_ID":67370,"ELEMENT_SET_NO":999,"REV_AT_EPOCH":1252,"BSTAR":0.00055095,"MEAN_MOTION_DOT":5.017e-5,"MEAN_MOTION_DDOT":0},{"OBJECT_NAME":"LEMUR-2-KATIE","OBJECT_ID":"2026-004AA","EPOCH":"2026-04-05T18:02:09.708000","MEAN_MOTION":14.89531783,"ECCENTRICITY":0.000271,"INCLINATION":97.8052,"RA_OF_ASC_NODE":95.6966,"ARG_OF_PERICENTER":10.9251,"MEAN_ANOMALY":349.2024,"EPHEMERIS_TYPE":0,"CLASSIFICATION_TYPE":"U","NORAD_CAT_ID":67387,"ELEMENT_SET_NO":999,"REV_AT_EPOCH":1252,"BSTAR":0.00084117,"MEAN_MOTION_DOT":7.969e-5,"MEAN_MOTION_DDOT":0},{"OBJECT_NAME":"LEMUR-2-HCS-BAZUS","OBJECT_ID":"2026-004AB","EPOCH":"2026-04-05T13:06:24.119136","MEAN_MOTION":14.89460466,"ECCENTRICITY":0.0002121,"INCLINATION":97.8036,"RA_OF_ASC_NODE":95.4921,"ARG_OF_PERICENTER":11.0701,"MEAN_ANOMALY":349.0563,"EPHEMERIS_TYPE":0,"CLASSIFICATION_TYPE":"U","NORAD_CAT_ID":67388,"ELEMENT_SET_NO":999,"REV_AT_EPOCH":1249,"BSTAR":0.00033042,"MEAN_MOTION_DOT":3.089e-5,"MEAN_MOTION_DDOT":0}]
